[{"OBJECT_NAME":"TEVEL2-6","OBJECT_ID":"2025-052F","EPOCH":"2026-03-09T15:35:24.554400","MEAN_MOTION":15.30760889,"ECCENTRICITY":0.0004769,"INCLINATION":97.4016,"RA_OF_ASC_NODE":325.0381,"ARG_OF_PERICENTER":95.6604,"MEAN_ANOMALY":264.5181,"EPHEMERIS_TYPE":0,"CLASSIFICATION_TYPE":"U","NORAD_CAT_ID":63215,"ELEMENT_SET_NO":999,"REV_AT_EPOCH":5486,"BSTAR":0.00070909,"MEAN_MOTION_DOT":0.00021046,"MEAN_MOTION_DDOT":0},{"OBJECT_NAME":"STARLINK-35405","OBJECT_ID":"2025-259U","EPOCH":"2026-03-09T23:11:39.666048","MEAN_MOTION":15.27602598,"ECCENTRICITY":0.00023723,"INCLINATION":42.9999,"RA_OF_ASC_NODE":272.7787,"ARG_OF_PERICENTER":241.8865,"MEAN_ANOMALY":118.1747,"EPHEMERIS_TYPE":0,"CLASSIFICATION_TYPE":"U","NORAD_CAT_ID":66440,"ELEMENT_SET_NO":999,"REV_AT_EPOCH":1953,"BSTAR":0.00060263064,"MEAN_MOTION_DOT":0.0001637,"MEAN_MOTION_DDOT":0}]
